{
  "norad_id": 62130,
  "name": "STARLINK-32463",
  "history": [
    {
      "epoch": "2026-03-28T12:49:09.469632",
      "apogee_km": 483.671003676116,
      "perigee_km": 482.32196761016894,
      "latitude_deg": -11.633287564595902,
      "longitude_deg": 84.27718847990036,
      "semi_major_axis_km": 6861.133485643142,
      "eccentricity": 9.831e-05,
      "inclination_deg": 43.0042,
      "raan_deg": 29.531,
      "arg_perigee_deg": 272.2814,
      "mean_anomaly_deg": 87.7925,
      "mean_motion_rev_day": 15.2759757
    }
  ]
}