{"fetched_at":"2026-03-29T02:12:04Z","count":15717,"tles":[{"name":"STARLINK-32463","line1":"1 62130U 24222S   26087.53413738  .00040215  00000+0  14622-2 0  9999","line2":"2 62130  43.0042  29.5310 0000983 272.2814  87.7925 15.27597570 75630","category":"Starlink"}]}